[{"OBJECT_NAME":"EXACTVIEW-1 (ADS-1B)","OBJECT_ID":"2012-039C","EPOCH":"2026-03-09T21:13:50.174400","MEAN_MOTION":14.24951198,"ECCENTRICITY":0.00118702,"INCLINATION":98.9638,"RA_OF_ASC_NODE":184.1041,"ARG_OF_PERICENTER":97.8489,"MEAN_ANOMALY":262.4037,"EPHEMERIS_TYPE":0,"CLASSIFICATION_TYPE":"U","NORAD_CAT_ID":38709,"ELEMENT_SET_NO":999,"REV_AT_EPOCH":70856,"BSTAR":0.0001068616,"MEAN_MOTION_DOT":2.04e-6,"MEAN_MOTION_DDOT":0},{"OBJECT_NAME":"DMSP 5D-2 F13 DEB","OBJECT_ID":"1995-015AC","EPOCH":"2026-03-09T13:17:51.655776","MEAN_MOTION":14.29127038,"ECCENTRICITY":0.0004464,"INCLINATION":98.7278,"RA_OF_ASC_NODE":95.9381,"ARG_OF_PERICENTER":254.792,"MEAN_ANOMALY":105.2768,"EPHEMERIS_TYPE":0,"CLASSIFICATION_TYPE":"U","NORAD_CAT_ID":40415,"ELEMENT_SET_NO":999,"REV_AT_EPOCH":57181,"BSTAR":0.0010875,"MEAN_MOTION_DOT":2.714e-5,"MEAN_MOTION_DDOT":0}]
